{
"type": "FeatureCollection",
"name": "kampar-kiri-hulu",
"crs": { "type": "name", "properties": { "name": "urn:ogc:def:crs:EPSG::3857" } },
"features": [
{ "type": "Feature", "properties": { "place": "Kampar Kiri Hulu, Kampar, Riau, Sumatera, Indonesia", "query": "Kampar Kiri Hulu, Kampar, Riau, Indonesia", "baselineYear": 1990, "comparisonYear": 2024, "forestLossHa": 4526.8614, "forestGainHa": 3732.2652, "forestLossPct": 3.4448, "forestGainPct": 2.8402, "netForestChangeHa": -794.5962, "baselineForestAreaHa": 124786.6629, "comparisonForestAreaHa": 123992.0666, "analyzedAreaHa": 131409.8561, "aoiAreaHa": 131411.3712, "coverageFraction": 1.0, "validPixelCount": 56229, "sourceFormat": "pmtiles_png", "zoom": 10, "forestClasses": "3,5,76", "baselinePmtiles": "landcover-processing/landcover-mapbiomas-pmtiles-values/1990_landcover.pmtiles", "comparisonPmtiles": "landcover-processing/landcover-mapbiomas-pmtiles-values/2024_landcover.pmtiles" }, "geometry": { "type": "Polygon", "coordinates": [ [ [ 11213893.516098408028483, -5171.414303112201196 ], [ 11213929.939835794270039, -5479.758268176662568 ], [ 11214329.665863335132599, -5685.866384345048573 ], [ 11214968.684268284589052, -5763.567420217264043 ], [ 11215216.581642331555486, -5960.692057781362564 ], [ 11215316.513149218633771, -6279.221795402374482 ], [ 11215322.123651552945375, -6692.773917600519781 ], [ 11215322.758172649890184, -7272.314666109709833 ], [ 11215459.102284975349903, -7767.319389982024404 ], [ 11215578.837529271841049, -8271.652741803278332 ], [ 11215615.884655809029937, -8743.224788305047696 ], [ 11215710.005285274237394, -9039.891519570583114 ], [ 11215859.908111575990915, -9270.99102055916228 ], [ 11215984.819712195545435, -9583.275929220981197 ], [ 11216033.021051708608866, -9803.232365104380733 ], [ 11216003.554782494902611, -10057.965064661004362 ], [ 11216028.53487622924149, -10438.956513786888536 ], [ 11216090.996242513880134, -10620.09583604990803 ], [ 11216204.742498205974698, -10798.507835444423108 ], [ 11216228.409021949395537, -10968.815772365622252 ], [ 11216231.180877270177007, -11165.907227536767095 ], [ 11216222.854179356247187, -11476.811923189889058 ], [ 11216223.499832404777408, -12039.210078446565603 ], [ 11216233.262551747262478, -12505.639608406925618 ], [ 11216364.430307749658823, -12861.662307867984055 ], [ 11216439.337193103507161, -13085.927017987403815 ], [ 11216508.076978668570518, -13317.605638524597452 ], [ 11216489.341908367350698, -13642.392110267412136 ], [ 11216351.940260883420706, -13873.491910802466009 ], [ 11216177.736389739438891, -13939.0703786998547 ], [ 11215939.713054524734616, -14085.845481525380819 ], [ 11215796.055251656100154, -14341.925474054445658 ], [ 11215771.075157923623919, -14666.71206022464321 ], [ 11215890.16474917344749, -14972.485262944332135 ], [ 11216344.715625928714871, -15448.689134918522541 ], [ 11216556.89057538099587, -15711.737876491211864 ], [ 11216711.45768834836781, -15955.661896356210491 ], [ 11216852.532879030331969, -16198.918020458686442 ], [ 11217019.089101154357195, -16348.810202727272554 ], [ 11217177.318625368177891, -16457.079897514227923 ], [ 11217231.442161791026592, -16636.126769023794623 ], [ 11217243.742965525016189, -17075.56199355267745 ], [ 11217318.88362181186676, -17502.217773442505859 ], [ 11217439.643005423247814, -17814.514669822467113 ], [ 11217585.371350821107626, -18031.031934263835865 ], [ 11217661.99255633354187, -18182.204411920283746 ], [ 11217693.640687566250563, -18409.953895178055973 ], [ 11217813.509515251964331, -18819.210614143645216 ], [ 11217876.850305514410138, -19184.440352367295418 ], [ 11217859.896347066387534, -19616.996498879376304 ], [ 11217955.965067621320486, -19983.907308621332049 ], [ 11218255.703928530216217, -20315.841422751418577 ], [ 11218526.410666242241859, -20450.271526296470256 ], [ 11218913.657778864726424, -20550.203549364687206 ], [ 11219158.627450304105878, -20594.141580930940108 ], [ 11219213.463431470096111, -20700.107159437357041 ], [ 11219225.953478336334229, -20933.289338751652394 ], [ 11219183.362641157582402, -21252.789156457140052 ], [ 11219191.600283477455378, -21806.662438569350343 ], [ 11219223.560109283775091, -22069.133086549343716 ], [ 11219195.76363243162632, -22310.497467200540996 ], [ 11219007.110491385683417, -22458.753678088360175 ], [ 11218762.719681298360229, -22564.496721030252957 ], [ 11218612.816854994744062, -22697.746990315856237 ], [ 11218567.008884534239769, -22930.929419428146502 ], [ 11218589.662400908768177, -23024.627642863044457 ], [ 11218579.510063348338008, -23193.25551432226348 ], [ 11218492.068603333085775, -23372.302976257615228 ], [ 11218308.847853435203433, -23480.561911279099149 ], [ 11218190.760137602686882, -23602.880600964308542 ], [ 11218142.759173173457384, -23723.685343782221025 ], [ 11218190.87145709246397, -23866.186415619275067 ], [ 11218288.955060429871082, -23969.825590257154545 ], [ 11218435.050760148093104, -24082.170017432938039 ], [ 11218564.704571073874831, -24265.926420730778773 ], [ 11218932.893786873668432, -24938.724164641782409 ], [ 11219116.181328466162086, -25130.172899630208121 ], [ 11219406.736331382766366, -25367.051500112927897 ], [ 11219572.980858935043216, -25461.306461199677869 ], [ 11220094.813235925510526, -25860.445725833415054 ], [ 11220703.786510311067104, -26347.628425706956477 ], [ 11221214.319958986714482, -27000.934834838757524 ], [ 11221481.39768129773438, -27471.887366635193757 ], [ 11221687.505718503147364, -28108.974860107628047 ], [ 11221762.457131654024124, -28671.110461623880838 ], [ 11221859.973005587235093, -29644.798827180366061 ], [ 11221987.311371106654406, -30038.963194521711557 ], [ 11222455.743788363412023, -30694.776011869787908 ], [ 11222877.344095846638083, -31125.754481590189243 ], [ 11223280.198201078921556, -31388.082011689151841 ], [ 11223609.236351964995265, -31560.440077845847554 ], [ 11224076.544442364946008, -31612.927861396725348 ], [ 11224554.349960749968886, -31706.615499034942331 ], [ 11224900.998855078592896, -31659.771679361962015 ], [ 11225225.228003963828087, -31656.921865292508301 ], [ 11225472.490856911987066, -31865.893404401336738 ], [ 11225781.658478694036603, -32287.487911539617926 ], [ 11225969.031445596367121, -32755.937550432074204 ], [ 11226021.162363134324551, -33052.763790613149467 ], [ 11225978.404546720907092, -33364.919005898809701 ], [ 11225837.874821543693542, -33683.452996856452955 ], [ 11225695.552852563560009, -33899.415839891225914 ], [ 11225622.393683215603232, -34226.855659727363673 ], [ 11225678.59889411740005, -34507.919190240572789 ], [ 11225828.501720419153571, -34873.308559437733493 ], [ 11226045.585859416052699, -35050.353737403143896 ], [ 11226062.717929048463702, -35199.657702482247259 ], [ 11225981.521492462605238, -35355.807940697224694 ], [ 11225706.707065543159842, -35455.740987276134547 ], [ 11225450.627708921208978, -35424.515388074127259 ], [ 11225225.773469466716051, -35461.986107218472171 ], [ 11225074.946691391989589, -35577.893758386511763 ], [ 11224932.223972246050835, -35811.757406924232782 ], [ 11224938.468995679169893, -36111.567824994133844 ], [ 11225073.711045045405626, -36290.661506488111627 ], [ 11225394.411366071552038, -36498.810079034876253 ], [ 11225737.932182710617781, -36636.225116876514221 ], [ 11225920.351432273164392, -36765.936734950897517 ], [ 11225937.806328428909183, -36911.044111504284956 ], [ 11225844.119844978675246, -37148.392397867268301 ], [ 11225619.265605522319674, -37254.570734248685767 ], [ 11225553.308807229623199, -37354.092061219736934 ], [ 11225531.824145507067442, -37566.871805822134775 ], [ 11225712.952088974416256, -37947.869438894515042 ], [ 11226014.049047673121095, -38158.077774500765372 ], [ 11226354.608765857294202, -38157.599092124102754 ], [ 11226390.420246046036482, -38157.543431382648123 ], [ 11226726.8722750172019, -38057.242779991138377 ], [ 11226972.632314842194319, -37941.613172800025495 ], [ 11227277.191309705376625, -37731.004122456608457 ], [ 11227488.164008656516671, -37453.401886606130574 ], [ 11227624.185294456779957, -37131.39362343565881 ], [ 11227693.581865018233657, -37023.122457307523291 ], [ 11227776.60394125059247, -36983.01336978909967 ], [ 11227865.692929731681943, -36992.587006976675184 ], [ 11227987.832675030454993, -37075.866521890551667 ], [ 11228159.932607797905803, -37300.724583412673383 ], [ 11228279.300497774034739, -37594.980465170279786 ], [ 11228456.888481436297297, -37848.849003832307062 ], [ 11228576.323163110762835, -38033.586967356211971 ], [ 11228776.197308829054236, -38294.524524918684619 ], [ 11229075.335044488310814, -38405.456402718504251 ], [ 11229286.964528435841203, -38388.902894476777874 ], [ 11229459.075593151152134, -38330.614954937977018 ], [ 11229847.70306745916605, -38100.201737074959965 ], [ 11230095.767420742660761, -37910.699203683827363 ], [ 11230214.122303355485201, -37858.689820129118743 ], [ 11230458.401793951168656, -37847.591071438873769 ], [ 11230663.830782260745764, -37905.89011674257199 ], [ 11230852.584110848605633, -38003.051488573175448 ], [ 11230996.932094562798738, -38022.477084708720213 ], [ 11231116.188665049150586, -37941.613172800025495 ], [ 11231210.353822311386466, -37802.160788375476841 ], [ 11231196.80624028109014, -37633.842775198478193 ], [ 11231058.013099160045385, -37436.748203787487 ], [ 11230944.20005177333951, -37236.870633422673563 ], [ 11230992.501578828319907, -37075.788596930455242 ], [ 11231113.528129218146205, -36898.20875936072116 ], [ 11231363.362462405115366, -36706.669254984088184 ], [ 11231672.78611901588738, -36550.095809335754893 ], [ 11232003.215763537213206, -36356.19635344712151 ], [ 11232282.193539414554834, -36202.127685856983589 ], [ 11232631.369386184960604, -36117.178417268558405 ], [ 11233284.302727483212948, -36099.188899281121849 ], [ 11233651.801762439310551, -36117.178417268558405 ], [ 11233822.83302809484303, -36106.124214659328572 ], [ 11233986.617394898086786, -36025.627803962575854 ], [ 11234128.182391339913011, -35889.604356575655402 ], [ 11234269.758519729599357, -35731.372338386638148 ], [ 11234424.859966253861785, -35653.347285598516464 ], [ 11234877.685390902683139, -35534.278104178803915 ], [ 11235024.816361885517836, -35448.226805572354351 ], [ 11235152.510949773713946, -35414.908367884418112 ], [ 11235259.75614720210433, -35405.969275010647834 ], [ 11235307.957486715167761, -35364.947411344539432 ], [ 11235443.978772515431046, -35281.668023145874031 ], [ 11235729.902884619310498, -35148.416561685939087 ], [ 11235940.040687389671803, -35096.741270571175846 ], [ 11236209.823473326861858, -35067.196630801132414 ], [ 11236651.249782118946314, -35003.966206089076877 ], [ 11236779.43417576700449, -35046.168061355376267 ], [ 11236948.450558638200164, -35180.955743379723572 ], [ 11236992.867035465314984, -35177.259880069068458 ], [ 11237054.560297261923552, -35196.99712613907468 ], [ 11237105.143873877823353, -35253.74866804285557 ], [ 11237158.187611242756248, -35303.097353179087804 ], [ 11237191.505534837022424, -35324.070266698763589 ], [ 11237223.576680134981871, -35309.264547454695276 ], [ 11237242.089111452922225, -35274.721580664736393 ], [ 11237227.283619178459048, -35216.734372546110535 ], [ 11237139.686311872676015, -35062.521141531964531 ], [ 11237113.782266363501549, -34966.28399158983666 ], [ 11237133.519212082028389, -34897.186947375143063 ], [ 11237190.269888490438461, -34845.3780820463071 ], [ 11237272.935742352157831, -34852.780938683194108 ], [ 11237338.324811244383454, -34849.073944301264419 ], [ 11237472.798756122589111, -34761.475332735026313 ], [ 11237535.716532317921519, -34745.433955981468898 ], [ 11237586.300108935683966, -34759.015135453206312 ], [ 11237685.007101422175765, -34852.780938683194108 ], [ 11237787.398769052699208, -34909.532463754614582 ], [ 11237819.481046298518777, -34944.075419657536258 ], [ 11237823.187985341995955, -35029.202714975901472 ], [ 11237821.952338995411992, -35141.48125212402374 ], [ 11237846.620738154277205, -35156.286969216642319 ], [ 11237883.634468844160438, -35153.815638981999655 ], [ 11237904.60706090927124, -35118.037011761654867 ], [ 11237934.218045460060239, -34962.576996846859402 ], [ 11237978.634522287175059, -34929.269705271421117 ], [ 11238136.552351927384734, -34919.395518413257378 ], [ 11238180.968828752636909, -34913.228326212862157 ], [ 11238227.8565982747823, -34913.228326212862157 ], [ 11238261.163389921188354, -34932.965567792285583 ], [ 11238357.399089710786939, -35042.772765636233089 ], [ 11238398.108627492561936, -35026.731385012179089 ], [ 11238427.71961204521358, -34976.147046729267458 ], [ 11238428.955258393660188, -34921.866848148936697 ], [ 11238438.818165276199579, -34868.811184794678411 ], [ 11238484.470288451761007, -34834.268231121437566 ], [ 11238546.16355025023222, -34834.268231121437566 ], [ 11238604.149873003363609, -34870.046849608246703 ], [ 11238727.5141327008605, -34979.854041515485733 ], [ 11238784.275941057130694, -34972.451184071273019 ], [ 11238853.360817041248083, -34924.338177889854705 ], [ 11238912.582786144688725, -34857.712465762087959 ], [ 11238969.333462551236153, -34815.766655968065606 ], [ 11239028.55543165281415, -34804.656805324812012 ], [ 11239053.223830813542008, -34841.671087687886029 ], [ 11239055.695123508572578, -34895.962414648500271 ], [ 11239068.02932308986783, -34941.604089874745114 ], [ 11239111.210153566673398, -34958.881134231989563 ], [ 11239166.736315574496984, -34950.242612021320383 ], [ 11239208.681499706581235, -34963.812661759868206 ], [ 11239250.62668383680284, -34994.659756545268465 ], [ 11239288.876060873270035, -35057.578481467906386 ], [ 11239323.418498866260052, -35081.022720607354131 ], [ 11239392.503374852240086, -35109.398488366954552 ], [ 11239422.114359403029084, -35137.774256821459858 ], [ 11239457.892443746328354, -35242.649945328739705 ], [ 11239487.503428295254707, -35252.513002820662223 ], [ 11239592.377520572394133, -35231.540090602422424 ], [ 11239639.254158144816756, -35241.41428011842072 ], [ 11239666.404981950297952, -35264.858522982962313 ], [ 11239679.974827876314521, -35341.347316764084098 ], [ 11239702.183066291734576, -35384.528810941774282 ], [ 11239755.226803652942181, -35395.627535023035307 ], [ 11239807.046026619151235, -35362.320230980512861 ], [ 11239867.503642067313194, -35315.442873883024731 ], [ 11239939.059810750186443, -35304.333018455494312 ], [ 11240000.741940598934889, -35284.595770550295128 ], [ 11240053.79680990986526, -35243.874478421348613 ], [ 11240120.421525148674846, -35206.871315359792789 ], [ 11240195.673500927165151, -35185.887271851788682 ], [ 11240349.89552347175777, -35152.579973866646469 ], [ 11240406.646199876442552, -35109.398488366954552 ], [ 11240421.451692152768373, -35060.049811497308838 ], [ 11240451.062676703557372, -35034.134242802123481 ], [ 11240499.174960624426603, -35034.134242802123481 ], [ 11240546.062730146571994, -35023.035522193342331 ], [ 11240591.714853320270777, -34984.785569132283854 ], [ 11240629.953098407015204, -34979.854041515485733 ], [ 11240694.106520952656865, -34983.549904196996067 ], [ 11240778.008021164685488, -34955.174139512593683 ], [ 11240837.229990266263485, -34952.713941822446941 ], [ 11240889.049213230609894, -34965.048326674193959 ], [ 11241031.23759881965816, -35047.860143160112784 ], [ 11241114.515709882602096, -35067.296819857096125 ], [ 11241367.121898390352726, -35153.348090019288065 ], [ 11241533.678120516240597, -35203.320169508573599 ], [ 11241769.630913201719522, -35233.855571338164737 ], [ 11242069.436565805226564, -35208.875096722658782 ], [ 11242402.749385138973594, -35158.580185565217107 ], [ 11242613.510577058419585, -35197.765242321198457 ], [ 11242802.275037596002221, -35328.233679512966773 ], [ 11243018.802579138427973, -35655.807484784534608 ], [ 11243206.721011547371745, -35807.961352458849433 ], [ 11243482.381466597318649, -35980.587220423694816 ], [ 11243635.05614821985364, -36094.402084518493211 ], [ 11244010.703769901767373, -36457.331758403575805 ], [ 11244267.963113125413656, -36807.838088217598852 ], [ 11244567.301223868504167, -37044.863520346036239 ], [ 11245216.661209512501955, -37601.470504244301992 ], [ 11245494.926540650427341, -38004.276024708844488 ], [ 11245580.987638982012868, -38176.390158606584009 ], [ 11245678.136158596724272, -38251.342917015579587 ], [ 11245742.33410893753171, -38250.841970298461092 ], [ 11245930.753479054197669, -38212.480584616780106 ], [ 11246072.318475496023893, -38206.925642347421672 ], [ 11246291.617872359231114, -38251.342917015579587 ], [ 11246505.373558580875397, -38312.413889676216058 ], [ 11246719.118112850934267, -38379.039808989626181 ], [ 11246824.604462327435613, -38436.381518338057504 ], [ 11246946.744207626208663, -38581.678365962921816 ], [ 11247043.903859188780189, -38739.910796964271867 ], [ 11247154.933919306844473, -38878.717639595175569 ], [ 11247288.439384615048766, -38962.06409408604668 ], [ 11247433.922827133908868, -39044.575643405092706 ], [ 11247504.699759380891919, -39161.17386927777261 ], [ 11247538.01768297329545, -39327.733244241528155 ], [ 11247496.373061468824744, -39523.436647845177504 ], [ 11247417.258299360051751, -39689.996081284945831 ], [ 11247381.201916292309761, -39858.826503744428919 ], [ 11247404.768252495676279, -40073.076201797928661 ], [ 11247546.344380885362625, -40393.704978189205576 ], [ 11247700.410556145012379, -40622.72718551359867 ], [ 11247783.198861446231604, -40755.578569154138677 ], [ 11247829.485505718737841, -40910.037527872496867 ], [ 11247937.74371051415801, -41205.685957068984862 ], [ 11247975.224983064457774, -41376.409105648919649 ], [ 11247954.408238286152482, -41580.439782726207341 ], [ 11247875.961393123492599, -41868.796829819686536 ], [ 11248548.843187173828483, -41965.346309186817962 ], [ 11248552.026924610137939, -41964.11063609374105 ], [ 11248662.455859476700425, -41948.336322962910344 ], [ 11248835.991813676431775, -41948.336322962910344 ], [ 11248951.675028508529067, -41958.856242418267357 ], [ 11249114.691290825605392, -41958.856242418267357 ], [ 11249257.870419882237911, -41971.112783641961869 ], [ 11249367.09710424952209, -42011.433577026647981 ], [ 11249482.791451031342149, -42032.473417421781051 ], [ 11249603.740077776834369, -42074.541967393117375 ], [ 11249750.971236299723387, -42111.35612469134503 ], [ 11249871.919863047078252, -42163.933467589784414 ], [ 11249982.348797915503383, -42169.198994571816002 ], [ 11250071.749480970203876, -42190.227706209523603 ], [ 11250124.325676472857594, -42184.973311305242532 ], [ 11250266.313686978071928, -42158.679072828759672 ], [ 11250408.290565537288785, -42121.864913726894883 ], [ 11250545.013164129108191, -42100.83620357853215 ], [ 11250751.098937435075641, -42099.021656350538251 ], [ 11250812.179942034184933, -42094.657837264050613 ], [ 11250873.26094663143158, -42120.840752078562218 ], [ 11250943.069399308413267, -42147.012535410758574 ], [ 11251004.150403905659914, -42160.103993439071928 ], [ 11251069.584000593051314, -42181.923090547679749 ], [ 11251183.018561713397503, -42195.003416857092816 ], [ 11251245.735962826758623, -42216.388359231154027 ], [ 11251309.544294947758317, -42225.550154053009464 ], [ 11251374.989023586735129, -42260.449579840904335 ], [ 11251492.776176793500781, -42273.541039410090889 ], [ 11251623.665634067729115, -42321.531927160467603 ], [ 11251689.110362704843283, -42325.895747274189489 ], [ 11251763.271407473832369, -42356.43135643061396 ], [ 11251813.598949261009693, -42359.136479709282867 ], [ 11251898.524588786065578, -42378.250457990106952 ], [ 11252051.221534308046103, -42395.705739594763145 ], [ 11252173.372411554679275, -42421.877530401849071 ], [ 11252299.898144790902734, -42426.241350971693464 ], [ 11252443.867642233148217, -42391.341919163838611 ], [ 11252566.029651431366801, -42382.614278361514152 ], [ 11252692.555384665727615, -42400.058427850482985 ], [ 11252819.069985952228308, -42373.886637638541288 ], [ 11252858.332370353862643, -42378.250457990106952 ], [ 11252949.959443226456642, -42400.058427850482985 ], [ 11253072.110320474952459, -42404.422248321054212 ], [ 11253150.646221227943897, -42430.605171561386669 ], [ 11253246.62588619068265, -42434.968992170935962 ], [ 11253316.434338867664337, -42452.413142612174852 ], [ 11253381.867935555055737, -42452.413142612174852 ], [ 11253482.222456505522132, -42482.959887991550204 ], [ 11253591.282161636278033, -42491.687529707451176 ], [ 11253652.36316623352468, -42509.131681181650492 ], [ 11253777.586461428552866, -42509.454514874982124 ], [ 11253866.141116354614496, -42522.223144143317768 ], [ 11253983.939401511102915, -42570.214044338797976 ], [ 11254058.111578226089478, -42574.577865584862593 ], [ 11254167.171283356845379, -42596.396972114162054 ], [ 11254503.111242674291134, -42644.387876035740192 ], [ 11254586.010867467150092, -42679.287317077243642 ], [ 11254677.626808390021324, -42749.097335193771869 ], [ 11254734.344088949263096, -42788.36060229697614 ], [ 11254856.494966197758913, -42845.079160842462443 ], [ 11254974.293251354247332, -42901.797722776042065 ], [ 11255019.622548002749681, -42917.995075236358389 ], [ 11255035.374255951493979, -42923.605704606721702 ], [ 11255105.182708628475666, -42958.516288102211547 ], [ 11255209.889821669086814, -43015.234856825474708 ], [ 11255332.040698915719986, -43054.498134948480583 ], [ 11255480.385052345693111, -43111.216709430635092 ], [ 11255598.172205556184053, -43154.843815458705649 ], [ 11255737.789110908284783, -43194.107099389759242 ], [ 11255838.132499909028411, -43250.825682271395635 ], [ 11256025.728105794638395, -43320.635742561185907 ], [ 11256104.264006549492478, -43329.363391987870273 ], [ 11256182.788775354623795, -43316.271917878264503 ], [ 11256198.239920675754547, -43303.514410120456887 ], [ 11256244.804863676428795, -43265.041508192909532 ], [ 11256283.132164355367422, -43233.381517162473756 ], [ 11256335.485720874741673, -43207.198571798617195 ], [ 11256409.657897591590881, -43167.935287321961368 ], [ 11256462.011454110965133, -43093.761414703032642 ], [ 11256505.637562554329634, -43028.315194550355955 ], [ 11256527.4561827480793, -42971.60775724476116 ], [ 11256531.819906786084175, -42906.161545542236126 ], [ 11256571.082291191443801, -42866.898273569750017 ], [ 11256584.173463307321072, -42779.63295786742674 ], [ 11256623.435847708955407, -42701.106426001089858 ], [ 11256671.425680192187428, -42618.204946944351832 ], [ 11256693.233168438076973, -42544.042249477533915 ], [ 11256723.77923671156168, -42465.504604798348737 ], [ 11256749.950448997318745, -42321.531927160467603 ], [ 11256741.234132867306471, -42229.91397373147629 ], [ 11256767.405345153063536, -42151.376354733802145 ], [ 11256767.405345153063536, -42037.939323123071517 ], [ 11256797.940281478688121, -41972.504307405593863 ], [ 11256809.962786482647061, -41873.438952613469155 ], [ 11256845.941245909780264, -41797.98497863204102 ], [ 11256846.675954546779394, -41754.580578132598021 ], [ 11256893.931078389286995, -41601.657728776488511 ], [ 11256915.738566635176539, -41479.493128592264839 ], [ 11256941.920910870656371, -41418.410834209345921 ], [ 11256989.910743352025747, -41304.973887883825228 ], [ 11256981.183295272290707, -41222.08366039278917 ], [ 11257007.354507558047771, -41178.456641764234519 ], [ 11257046.628023909404874, -41095.555292713899689 ], [ 11257077.162960235029459, -40986.482197608413117 ], [ 11257085.8904083147645, -40886.13674184679985 ], [ 11257124.651855006814003, -40754.487615873164032 ], [ 11257138.243964832276106, -40667.990609531159862 ], [ 11257208.052417509257793, -40497.846455675287871 ], [ 11257212.416141549125314, -40388.773425861465512 ], [ 11257216.768733639270067, -40270.972785780795675 ], [ 11257190.597521353513002, -40118.272808110639744 ], [ 11257173.142625195905566, -40022.291249026537116 ], [ 11257186.233797313645482, -39917.58207996753481 ], [ 11257192.467688797041774, -39895.117367021739483 ], [ 11257238.587353833019733, -39729.971685193449957 ], [ 11257264.769698068499565, -39581.635596655505651 ], [ 11257391.284299356862903, -39372.217359345158911 ], [ 11257487.26396431773901, -39254.416836485128442 ], [ 11257552.708692954853177, -39184.618196204122796 ], [ 11257635.60831774957478, -39114.808428457326954 ], [ 11257696.678190398961306, -39040.634859600526397 ], [ 11257756.089402634650469, -38956.253108262833848 ], [ 11257801.385303437709808, -38905.390285454246623 ], [ 11257840.658819789066911, -38861.76336630784499 ], [ 11257904.990353519096971, -38783.114689152076608 ], [ 11257954.082248959690332, -38704.699793128267629 ], [ 11258019.5269775968045, -38626.162449269257195 ], [ 11258076.244258156046271, -38573.807934001823014 ], [ 11258163.496475040912628, -38508.362010534001456 ], [ 11258207.133715430274606, -38499.645535576397378 ], [ 11258272.567312117666006, -38438.563419978148886 ], [ 11258359.83066095225513, -38386.20891400729306 ], [ 11258495.072710316628218, -38259.680896853009472 ], [ 11258564.88116299174726, -38163.699509405552817 ], [ 11258656.497103914618492, -38106.981215041581891 ], [ 11258669.588276032358408, -38076.445734162094595 ], [ 11258695.759488318115473, -38002.272238305755309 ], [ 11258784.069240365177393, -37910.765996558155166 ], [ 11258822.285221554338932, -37871.391597858120804 ], [ 11258913.901162477210164, -37779.762913677506731 ], [ 11258913.901162477210164, -37701.236770178984443 ], [ 11258944.447230750694871, -37648.88230030786508 ], [ 11258988.073339192196727, -37609.619232605058642 ], [ 11259001.164511309936643, -37544.173368172130722 ], [ 11259040.426895713433623, -37487.455106480134418 ], [ 11259049.154343789443374, -37426.373048577639565 ], [ 11259075.325556075200438, -37382.746189932106063 ], [ 11259097.144176272675395, -37321.664137910323916 ], [ 11259132.042836636304855, -37260.582089311450545 ], [ 11259127.200438786298037, -37184.260146748005354 ], [ 11259184.396393155679107, -37138.418002360020182 ], [ 11259188.760117193683982, -37077.34709613344603 ], [ 11259214.931329481303692, -37007.537466146786755 ], [ 11259232.386225637048483, -36894.101001420916873 ], [ 11259223.658777559176087, -36780.664548365035444 ], [ 11259210.578737389296293, -36649.784054616015055 ], [ 11259236.749949675053358, -36601.793430897690996 ], [ 11259232.386225637048483, -36414.183619737283152 ], [ 11259210.857036117464304, -36226.596104339849262 ], [ 11259197.487565273419023, -36108.784793122336851 ], [ 11259193.123841233551502, -36025.894975002280262 ], [ 11259206.215013349428773, -35908.094816873497621 ], [ 11259184.396393155679107, -35833.921467120679154 ], [ 11259171.305221037939191, -35777.203292844656971 ], [ 11259184.396393155679107, -35655.050500419034506 ], [ 11259180.600398518145084, -35519.906534971116344 ], [ 11259162.577772960066795, -35454.349472142086597 ], [ 11259140.770284712314606, -35340.924296205266728 ], [ 11259123.315388556569815, -35231.851789931970416 ], [ 11259075.325556075200438, -35183.861226291875937 ], [ 11259062.234383959323168, -35066.061154834045738 ], [ 11259044.790619751438498, -35004.979228711381438 ], [ 11259031.699447633698583, -34895.906754070056195 ], [ 11259009.880827438086271, -34856.643782691309752 ], [ 11258988.073339192196727, -34795.561867552205513 ], [ 11258974.982167076319456, -34686.489412476119469 ], [ 11258970.618443036451936, -34616.679929561229073 ], [ 11258944.447230750694871, -34559.9729471303217 ], [ 11258930.855120925232768, -34519.418661998846801 ], [ 11258918.264886515215039, -34481.435896075738128 ], [ 11258892.093674229457974, -34394.182407355998293 ], [ 11258857.183881917968392, -34341.828090792696457 ], [ 11258835.376393670216203, -34298.19021866593539 ], [ 11258813.557773476466537, -34215.300530265005364 ], [ 11258809.194049438461661, -34167.310008236789145 ], [ 11258787.386561188846827, -34071.328969980619149 ], [ 11258796.1028773188591, -33997.155737282555492 ], [ 11258792.429334122687578, -33855.766851840766321 ], [ 11258791.750285230576992, -33831.365275942574954 ], [ 11258791.750285230576992, -33783.374769313340948 ], [ 11258783.022837152704597, -33683.029976892619743 ], [ 11258789.100881349295378, -33634.705513050292211 ], [ 11258809.194049438461661, -33534.694696060978458 ], [ 11258813.557773476466537, -33403.803436679678271 ], [ 11258839.740117710083723, -33325.27759348777181 ], [ 11258826.648945592343807, -33246.740623246914765 ], [ 11258857.183881917968392, -33094.041612746972532 ], [ 11258870.007887257263064, -33002.368781486562511 ], [ 11258874.638778075575829, -32980.616661992258742 ], [ 11258913.901162477210164, -32836.634116105960857 ], [ 11258996.800787270069122, -32435.255305620172294 ], [ 11259031.699447633698583, -32300.000382687496312 ], [ 11259053.518067829310894, -32225.838389138662023 ], [ 11259088.416728194802999, -32156.029047345906292 ], [ 11259114.587940478697419, -32086.230841495202185 ], [ 11259158.225180868059397, -32029.512844515338656 ], [ 11259201.851289311423898, -31946.612177135542879 ], [ 11259245.477397754788399, -31876.813982788531575 ], [ 11259289.103506196290255, -31811.368438478777534 ], [ 11259337.093338675796986, -31759.014231860201107 ], [ 11259367.639406949281693, -31689.204915667949535 ], [ 11259402.538067314773798, -31649.942047266264126 ], [ 11259424.356687508523464, -31601.951624829325738 ], [ 11259463.6190719101578, -31567.041404482395592 ], [ 11259507.245180353522301, -31545.233649331086781 ], [ 11259546.507564757019281, -31505.970785319983406 ], [ 11259625.043465510010719, -31453.616591133923066 ], [ 11259686.124470110982656, -31405.615043914800481 ], [ 11259750.990337394177914, -31340.748391905974131 ], [ 11259773.376686993986368, -31318.361772238324193 ], [ 11259873.720075994729996, -31252.916256286775024 ], [ 11259893.034007648006082, -31215.556987217623828 ], [ 11259921.709908476099372, -31187.48187570785376 ], [ 11259965.336016917601228, -31156.935442618341767 ], [ 11260013.325849397107959, -31139.49147039842137 ], [ 11260026.417021514847875, -31100.217486571826157 ], [ 11260038.962728127837181, -31024.419146402506158 ], [ 11260087.498026113957167, -30964.973836426481284 ], [ 11260091.861750153824687, -30921.347214580822765 ], [ 11260139.283853229135275, -30841.251902147545479 ], [ 11260141.732882028445601, -30835.396428489995742 ], [ 11260166.022794920951128, -30777.364901040917175 ], [ 11260183.477691076695919, -30720.658093445486884 ], [ 11260235.285782091319561, -30631.757319874974201 ], [ 11260262.559057336300611, -30528.13994691892367 ], [ 11260355.265929268673062, -30517.230511902933358 ], [ 11260360.720584316179156, -30479.058622126005503 ], [ 11260458.882111297920346, -30391.805411854376871 ], [ 11260507.962874788790941, -30364.531827264636377 ], [ 11260562.498293329030275, -30309.995791825076594 ], [ 11260638.841200115159154, -30250.00504219342838 ], [ 11260682.478440504521132, -30239.106741517854971 ], [ 11260788.755158366635442, -30190.392785746571462 ], [ 11260829.720730977132916, -30184.570711168737034 ], [ 11260866.467294888570905, -30147.812604185175587 ], [ 11260878.801494468003511, -30135.48939894879004 ], [ 11260933.336913008242846, -30119.125251247769484 ], [ 11261020.589129893109202, -30064.589225748411991 ], [ 11261069.669893382117152, -30004.598487030456454 ], [ 11261189.650040559470654, -29884.617017552409379 ], [ 11261241.947937333956361, -29777.114609506115812 ], [ 11261304.175532687455416, -29666.484098387070844 ], [ 11261342.346986081451178, -29579.219808382171323 ], [ 11261347.801641128957272, -29579.219808382171323 ], [ 11261385.973094522953033, -29481.057229303696658 ], [ 11261484.134621504694223, -29404.713509101577074 ], [ 11261565.943315289914608, -29333.813373771910847 ], [ 11261620.478733828291297, -29252.003817192551651 ], [ 11261675.014152366667986, -29159.295973343047081 ], [ 11261740.447749057784677, -29115.669409668214939 ], [ 11261800.437822645530105, -29006.597440404166264 ], [ 11261827.71109788864851, -28897.525479622774583 ], [ 11261827.71109788864851, -28657.573874842379155 ], [ 11261789.539644494652748, -28543.047231311440555 ], [ 11261702.276295663788915, -28433.975306225100212 ], [ 11261598.660113632678986, -28324.903389453964337 ], [ 11261500.498586652800441, -28237.650314825837995 ], [ 11261407.791714718565345, -28150.386113424661744 ], [ 11261304.175532687455416, -28052.22363369582672 ], [ 11261178.74073046259582, -27970.425283017204492 ], [ 11261113.296001823619008, -27910.434633818171278 ], [ 11261026.043784942477942, -27812.272170290510985 ], [ 11260944.791688611730933, -27749.17568439894967 ], [ 11260906.063637763261795, -27697.745593814779568 ], [ 11260906.341936491429806, -27692.357679667384218 ], [ 11260911.518292812630534, -27621.390837110029679 ], [ 11260884.256149517372251, -27577.764320222348033 ], [ 11260873.346839420497417, -27528.683098759251152 ], [ 11260846.073564175516367, -27485.05658461092753 ], [ 11260846.073564175516367, -27430.520660720580054 ], [ 11260824.266075929626822, -27321.448818952190777 ], [ 11260780.639967486262321, -27163.295775776517985 ], [ 11260742.457382144406438, -27070.588065973679477 ], [ 11260731.559203997254372, -26956.061546676646685 ], [ 11260731.559203997254372, -26939.697435473597579 ], [ 11260698.831273702904582, -26830.625629408339591 ], [ 11260704.285928752273321, -26781.544432445462007 ], [ 11260720.649893900379539, -26688.836746067594504 ], [ 11260747.912037193775177, -26585.21966042389613 ], [ 11260782.933148996904492, -26504.412142230026802 ], [ 11260813.356765830889344, -26454.340203762829333 ], [ 11260818.811420880258083, -26421.611992306752654 ], [ 11260856.9828742723912, -26296.187250960072561 ], [ 11260927.882257958874106, -26198.024892812896724 ], [ 11260982.417676499113441, -26099.851408828824788 ], [ 11261020.589129893109202, -26023.507864724000683 ], [ 11261042.407750086858869, -25947.153192306363053 ], [ 11261107.852478725835681, -25838.081456466337841 ], [ 11261189.650040559470654, -25767.192624652205268 ], [ 11261238.730804050341249, -25750.828526052129746 ], [ 11261293.266222590580583, -25778.102023813131382 ], [ 11261342.346986081451178, -25816.273789430248144 ], [ 11261418.701024815440178, -25881.719055526424199 ], [ 11261529.029772141948342, -25964.352196047006146 ], [ 11261609.569423729553819, -26039.871966164442711 ], [ 11261756.811714204028249, -26187.115490726046119 ], [ 11261827.71109788864851, -26225.287266322258802 ], [ 11261909.508659724146128, -26279.823146822440322 ], [ 11261980.408043410629034, -26290.73254956162782 ], [ 11262050.884413031861186, -26330.997151970223058 ], [ 11262111.286368736997247, -26356.177835569029412 ], [ 11262154.923609126359224, -26410.702588642699993 ], [ 11262247.630481058731675, -26443.430799866786401 ], [ 11262313.075209697708488, -26443.430799866786401 ], [ 11262443.953535022214055, -26437.976097947779635 ], [ 11262472.128498142585158, -26411.682208560399886 ], [ 11262525.762228805571795, -26361.621405154332024 ], [ 11262574.842992296442389, -26317.994924702354183 ], [ 11262645.731244035065174, -26285.277848182417074 ], [ 11262700.266662573441863, -26236.19666867743581 ], [ 11262754.802081113681197, -26236.19666867743581 ], [ 11262863.87291819229722, -26159.84198584400292 ], [ 11262962.03444517403841, -26061.679636309672787 ], [ 11262989.307720419019461, -26007.143763454871078 ], [ 11263011.115208664909005, -25941.698492130297382 ], [ 11262989.307720419019461, -25848.990856117896328 ], [ 11263013.820272289216518, -25722.519749078197492 ], [ 11263022.024518761783838, -25679.928566115180729 ], [ 11262962.03444517403841, -25609.039741390206473 ], [ 11262902.044371586292982, -25543.594486573470931 ], [ 11262863.87291819229722, -25429.068080120669038 ], [ 11262831.156119847670197, -25369.077530870443297 ], [ 11262765.71139121055603, -25232.743477848063776 ], [ 11262747.610842008143663, -25190.096647758946347 ], [ 11262722.085282769054174, -25129.126488294903538 ], [ 11262694.812007525935769, -25052.771858747662918 ], [ 11262656.640554131940007, -25041.873596564160835 ], [ 11262673.004519278183579, -24954.609577485498448 ], [ 11262694.812007525935769, -24867.356695111746376 ], [ 11262711.175972672179341, -24731.011552176296391 ], [ 11262749.347426064312458, -24627.394594482433604 ], [ 11262765.71139121055603, -24578.313465846738836 ], [ 11262743.892771014943719, -24512.879384616830066 ], [ 11262760.256736163049936, -24403.807745589419937 ], [ 11262765.71139121055603, -24349.271928753936663 ], [ 11261877.448646374046803, -23592.204988732770289 ], [ 11261816.523489063605666, -23549.825369191057689 ], [ 11261639.057956842705607, -23388.24403444087875 ], [ 11261575.483395649120212, -23316.731914234562282 ], [ 11261464.230696551501751, -23245.208664936384594 ], [ 11261424.500770287588239, -23189.581946841957688 ], [ 11261371.523824617266655, -23073.040805521417496 ], [ 11261231.138814778998494, -22982.971618478230084 ], [ 11261149.029558369889855, -22906.160672823083587 ], [ 11260984.799913601949811, -22808.154363797668339 ], [ 11260900.041253311559558, -22736.63113508900642 ], [ 11260797.794301018118858, -22587.907356598465412 ], [ 11260681.242794157937169, -22452.809180437281611 ], [ 11260588.535922225564718, -22246.210069099161046 ], [ 11260588.535922225564718, -22185.284542213892564 ], [ 11260654.759887296706438, -22119.060177719966305 ], [ 11260699.788621325045824, -22105.824210720307747 ], [ 11260736.869143707677722, -22108.462498499866342 ], [ 11260781.897877734154463, -22097.875951356680162 ], [ 11260832.225419519469142, -22074.031173471648799 ], [ 11260940.828714739531279, -22057.87861869308108 ], [ 11260980.558641001582146, -21994.303678411954024 ], [ 11261004.403275931254029, -21914.843355143842928 ], [ 11261004.403275931254029, -21835.371903262752312 ], [ 11260938.179310858249664, -21747.96332892089049 ], [ 11260922.282887572422624, -21618.175184610550787 ], [ 11260940.828714739531279, -21573.146192474199779 ], [ 11261012.351487573236227, -21504.272430808756326 ], [ 11260980.558641001582146, -21435.398671650829783 ], [ 11260983.20804488286376, -21385.070846311980858 ], [ 11260975.259833240881562, -21347.990115864860854 ], [ 11260999.104468168690801, -21308.25996747138197 ], [ 11260975.259833240881562, -21289.71403689896033 ], [ 11260943.478118618950248, -21247.334471134225168 ], [ 11260914.345807880163193, -21191.70781373799764 ], [ 11260879.903557429090142, -21159.925923954284372 ], [ 11260816.340128183364868, -21136.081157953685761 ], [ 11260787.196685494855046, -21096.35101395228412 ], [ 11260811.041320422664285, -21003.643637126551766 ], [ 11260805.742512660101056, -20955.96524128789315 ], [ 11260789.846089376136661, -20913.58568285990259 ], [ 11260763.363182516768575, -20881.803797647124156 ], [ 11260715.685044610872865, -20598.371743636442261 ], [ 11260694.489813562482595, -20540.106819167976937 ], [ 11260646.81167565472424, -20476.531929331296851 ], [ 11260591.185326106846333, -20328.197948950135469 ], [ 11260543.507188199087977, -20230.191773878334061 ], [ 11260506.426665816456079, -20063.311892705583887 ], [ 11260456.099124029278755, -19991.799899273992196 ], [ 11260360.74284821562469, -19944.121527715189586 ], [ 11260313.06471030972898, -19957.357479922589846 ], [ 11260274.793069373816252, -19989.284066425108904 ], [ 11260139.172533739358187, -20191.385604561342916 ], [ 11260141.821937620639801, -20247.01223361691882 ], [ 11260133.873725976794958, -20294.690612317943305 ], [ 11260078.24737642891705, -20321.173653417004971 ], [ 11259990.839312257245183, -20318.524236090783234 ], [ 11259908.718923900276423, -20345.018409510837955 ], [ 11259879.586613159626722, -20390.047373124853038 ], [ 11259796.520009130239487, -20417.855124215202522 ], [ 11259616.405073026195168, -20282.768234535131342 ], [ 11259600.508649740368128, -20219.193352894380951 ], [ 11259502.502970047295094, -20084.106476573633699 ], [ 11259465.42244766280055, -20017.88218425793093 ], [ 11259420.39371363632381, -19909.289489053157013 ], [ 11259380.663787372410297, -19853.662869256830163 ], [ 11259282.658107679337263, -19803.335084266549529 ], [ 11259182.003024103119969, -19676.185352932967362 ], [ 11259166.106600817292929, -19607.322789396981534 ], [ 11259136.974290076643229, -19586.127458306676999 ], [ 11258975.394049189984798, -19519.914314044901403 ], [ 11258938.970311803743243, -19487.063778727155295 ], [ 11258893.941577777266502, -19280.45384967519567 ], [ 11258862.159863157197833, -19240.723742260521249 ], [ 11258795.935898082330823, -19206.292467371687962 ], [ 11258705.878430031239986, -19126.821124071546365 ], [ 11258597.27513481490314, -18978.487240778125852 ], [ 11258590.518041722476482, -18955.388344305436476 ], [ 11258492.323118893429637, -18939.035438952931145 ], [ 11258438.978818904608488, -18916.404086822232784 ], [ 11258349.255309326574206, -18823.318321238464705 ], [ 11258280.148169441148639, -18798.16000690488363 ], [ 11258269.238859344273806, -18779.291271346664871 ], [ 11258263.171947093680501, -18739.037969371547661 ], [ 11258254.689401896670461, -18731.490475334350776 ], [ 11258198.918337009847164, -18706.332162066417368 ], [ 11258035.234157746657729, -18579.282684501387848 ], [ 11257991.596917355433106, -18564.198829555105476 ], [ 11257903.097922176122665, -18550.361758282415394 ], [ 11257837.619797689840198, -18497.52930513465617 ], [ 11257781.848732803016901, -18474.897957598703215 ], [ 11257776.995203005149961, -18439.665191238473199 ], [ 11257816.992296047508717, -18347.826229434565903 ], [ 11257811.904995318502188, -18355.796737968586967 ], [ 11257744.857266012579203, -18343.429091358932055 ], [ 11257729.094426115974784, -18319.528697971116344 ], [ 11257651.504741033539176, -18250.977873834694037 ], [ 11257589.065638648346066, -18230.851227590614144 ], [ 11257542.990501409396529, -18205.692920040775789 ], [ 11257516.930608613416553, -18159.784575489320559 ], [ 11257499.95438626781106, -18152.86047510764547 ], [ 11257366.593636298552155, -18143.442808063366101 ], [ 11257338.106978604570031, -18130.863654744411178 ], [ 11257279.909148817881942, -18076.149904623831389 ], [ 11257253.838124072179198, -18025.198769644663116 ], [ 11257199.881566887721419, -17991.235057628913637 ], [ 11257139.268104149028659, -17993.12749650196929 ], [ 11257109.568064004182816, -17983.064174512826867 ], [ 11257086.524929409846663, -17957.905869735761371 ], [ 11257053.184741917997599, -17952.250817196025309 ], [ 11257040.460924120619893, -17918.287106274812686 ], [ 11257016.204407075420022, -17896.268024211978627 ], [ 11256989.53225708194077, -17850.348553963001905 ], [ 11256921.026242448017001, -17808.848485646733025 ], [ 11256874.34997995942831, -17812.622231098168413 ], [ 11256816.163282120600343, -17783.690182796439331 ], [ 11256765.846872283145785, -17798.161772897736228 ], [ 11256702.205519394949079, -17771.756687027933367 ], [ 11256655.518124956637621, -17696.90517207634548 ], [ 11256651.265720408409834, -17649.727790764529345 ], [ 11256642.170918010175228, -17632.116979960905155 ], [ 11256607.617348069325089, -17617.021999379081535 ], [ 11256543.964863233268261, -17562.297129600883636 ], [ 11256484.564782947301865, -17581.81151039645556 ], [ 11256471.228707948699594, -17576.145326794256107 ], [ 11256463.959545198827982, -17562.308261592166673 ], [ 11256462.735030801966786, -17522.678372974936792 ], [ 11256426.366953160613775, -17488.091276917235518 ], [ 11256391.212257966399193, -17475.512127207290177 ], [ 11256346.339371228590608, -17405.068890086356987 ], [ 11256329.374280830845237, -17389.973910979810171 ], [ 11256307.544528685510159, -17383.684336380829336 ], [ 11256266.322921244427562, -17340.28070611318617 ], [ 11256239.65077125094831, -17349.08611039333482 ], [ 11256208.125091457739472, -17332.10982530630281 ], [ 11256160.847703719511628, -17335.894701970810274 ], [ 11256148.123885922133923, -17327.089297740163602 ], [ 11256146.298246273770928, -17259.150762794142793 ], [ 11256112.345801580697298, -17230.842112812551932 ], [ 11256099.009726583957672, -17200.652156934069353 ], [ 11256046.867677096277475, -17154.743832435371587 ], [ 11256045.654294645413756, -17115.737342095177155 ], [ 11256057.164729993790388, -17077.99989913900572 ], [ 11256044.440912194550037, -17040.251324791879597 ], [ 11256037.149485548958182, -16900.611661255094077 ], [ 11256014.718608155846596, -16866.013442303250486 ], [ 11255999.55689350888133, -16862.874221689333353 ], [ 11255955.919653117656708, -16878.603720763949241 ], [ 11255935.303283423185349, -16862.250830362238048 ], [ 11255917.725935826078057, -16859.735001079505309 ], [ 11255897.120698081329465, -16884.893294024910574 ], [ 11255820.143270196393132, -16898.11809590861958 ], [ 11255785.589700255542994, -16862.896485665303771 ], [ 11255767.400095460936427, -16860.380656381901645 ], [ 11255740.11568826623261, -16837.103669640793669 ], [ 11255700.107463276013732, -16737.09389271353939 ], [ 11255683.732366180047393, -16738.351807290870056 ], [ 11255661.312620732933283, -16771.692109821306076 ], [ 11255645.549780836328864, -16774.207939012470888 ], [ 11255592.20548084937036, -16758.489572604248679 ], [ 11255538.861180860549212, -16777.369423486481537 ], [ 11255521.896090464666486, -16772.337765100204706 ], [ 11255518.857068365439773, -16757.866181304038037 ], [ 11255551.584998657926917, -16691.820100350028952 ], [ 11255552.798381108790636, -16671.693467575401883 ], [ 11255530.968628965318203, -16652.824749499966856 ], [ 11255497.628441469743848, -16650.308920434257743 ], [ 11255486.118006121367216, -16640.245604197316425 ], [ 11255480.051093874499202, -16609.421132485869748 ], [ 11255446.098649183288217, -16590.552414890793443 ], [ 11255430.948066486045718, -16593.06824389508256 ], [ 11255407.314938589930534, -16613.829399272384762 ], [ 11255370.334603749215603, -16609.432264472692623 ], [ 11255355.184021051973104, -16622.645932869229 ], [ 11255338.207798706367612, -16622.011409616879973 ], [ 11255286.076881166547537, -16588.047717875819217 ], [ 11255237.574979027733207, -16572.329352666893101 ], [ 11255215.155233584344387, -16570.448046922716458 ], [ 11255170.905735993757844, -16589.316764363087714 ], [ 11255145.446968447417021, -16579.887971618107258 ], [ 11255113.921288654208183, -16583.038323853543261 ], [ 11255082.406740812584758, -16610.089051695435046 ], [ 11255088.46252111159265, -16640.279000158217968 ], [ 11255079.378850663080812, -16650.97683965498436 ], [ 11255045.426405971869826, -16658.524326861956069 ], [ 11255039.982882870361209, -16701.304553462934564 ], [ 11255025.433425424620509, -16715.776136922333535 ], [ 11255007.243820628151298, -16712.002393227325229 ], [ 11254984.812943233177066, -16689.359931180057174 ], [ 11254924.199480496346951, -16698.165333062323043 ], [ 11254876.309835556894541, -16679.931138049367291 ], [ 11254840.542883167043328, -16689.371063167243847 ], [ 11254829.032447818666697, -16674.899479864667228 ], [ 11254829.021315867081285, -16630.872471190883516 ], [ 11254817.510880522429943, -16618.293326001159585 ], [ 11254762.953198082745075, -16623.324984069291531 ], [ 11254742.336828388273716, -16596.285388068030443 ], [ 11254710.210023345425725, -16601.317046090945951 ], [ 11254633.833720710128546, -16640.323528106073354 ], [ 11254603.532555317506194, -16643.473880419256602 ], [ 11254587.168590171262622, -16635.303001989923359 ], [ 11254554.429527927190065, -16586.867727282984561 ], [ 11254541.093452932313085, -16584.351898285061907 ], [ 11254520.47708323597908, -16601.339310064529855 ], [ 11254491.990425541996956, -16567.375618609872618 ], [ 11254461.678128199651837, -16552.904036028623523 ], [ 11254445.915288303047419, -16535.927756570752535 ], [ 11254402.879173163324594, -16543.475243423450593 ], [ 11254378.622656119987369, -16505.737809391408518 ], [ 11254362.870948173105717, -16501.329542798830516 ], [ 11254329.530760679394007, -16508.888161531842343 ], [ 11254227.684558551758528, -16495.685625733480265 ], [ 11254177.379280662164092, -16510.157207978238148 ], [ 11254138.584438120946288, -16480.601784330283408 ], [ 11254111.300030926242471, -16445.369048127533461 ], [ 11254109.474391279742122, -16427.134854991287284 ], [ 11254125.838356425985694, -16383.096718763868921 ], [ 11254123.411591526120901, -16361.077650943179833 ], [ 11254085.217874234542251, -16317.050647872019908 ], [ 11254059.146849490702152, -16271.131208076172697 ], [ 11254043.3951415438205, -16269.249902560717601 ], [ 11253947.014726415276527, -16325.867180409537468 ], [ 11253924.583849020302296, -16346.628333540942549 ], [ 11253867.699589224532247, -16366.343080186901716 ], [ 11253844.567399038001895, -16285.625052982357374 ], [ 11253846.381906736642122, -16251.026842700239285 ], [ 11253823.338772144168615, -16167.358843233121661 ], [ 11253816.670734643936157, -16154.156309244948716 ], [ 11253775.449127204716206, -16140.319252196717571 ], [ 11253734.227519763633609, -16114.537575710890451 ], [ 11253723.919334916397929, -16098.808081507559109 ], [ 11253722.093695268034935, -16048.480379905002337 ], [ 11253710.583259919658303, -16028.3537523376217 ], [ 11253664.508122680708766, -16005.711296515089998 ], [ 11253625.101022940129042, -16001.314162787310124 ], [ 11253613.59058759175241, -15988.735020772614007 ], [ 11253604.495785195380449, -15956.029251825322717 ], [ 11253588.120688097551465, -15944.073501130427758 ], [ 11253559.634030403569341, -15948.481766743252592 ], [ 11253529.933990260586143, -15971.758745143401029 ], [ 11253514.171150363981724, -15969.877439851128656 ], [ 11253505.076347965747118, -15958.556212174900793 ], [ 11253466.882630674168468, -15881.81231615368597 ], [ 11253468.096013125032187, -15864.824909251601639 ], [ 11253488.100125620141625, -15846.579588333352149 ], [ 11253548.10133115760982, -15839.655494644823193 ], [ 11253571.745591003447771, -15829.592181664545933 ], [ 11253611.742684045806527, -15744.66628198541548 ], [ 11253235.761103888973594, -15605.984041524921849 ], [ 11253088.919563584029675, -15506.764684262747323 ], [ 11253030.710601847618818, -15538.724604720257048 ], [ 11253017.485846342518926, -15566.699275925057009 ], [ 11252846.821935007348657, -15569.359819680377768 ], [ 11252455.077514957636595, -15499.584555895893573 ], [ 11252384.200395168736577, -15360.434785212437419 ], [ 11252432.07890815846622, -15268.584808589483146 ], [ 11252461.166691103950143, -15120.752105310486513 ], [ 11252462.970066852867603, -14931.408257972303545 ], [ 11252441.285030046477914, -14830.029321789808819 ], [ 11252442.342565210536122, -14720.05650176434574 ], [ 11252495.664601299911737, -14509.317020503283857 ], [ 11252486.447347462177277, -14483.913847089319461 ], [ 11252384.40077025257051, -14397.329325231190523 ], [ 11252448.843623472377658, -14283.349010515170448 ], [ 11252622.624480551108718, -13702.393453663064065 ], [ 11252503.468097604811192, -13466.985592517567056 ], [ 11252456.780703166499734, -13416.669070938856748 ], [ 11252358.574648387730122, -13354.396810654112414 ], [ 11252284.613978704437613, -13227.970990456669824 ], [ 11252194.890469124540687, -13138.648040236765155 ], [ 11252165.190428981557488, -13098.394827222275126 ], [ 11252048.79476940818131, -13029.833009020876489 ], [ 11252015.4545819144696, -13001.524403568926573 ], [ 11251961.49802472628653, -12984.548145998449399 ], [ 11251908.153724739328027, -12988.333016530781606 ], [ 11251825.721641808748245, -12971.980149469472963 ], [ 11251774.191849520429969, -12974.49597516565882 ], [ 11251717.207402180880308, -12952.488066378440635 ], [ 11251648.100262297317386, -12958.154240148560348 ], [ 11251602.637382257729769, -12973.249194289421212 ], [ 11251564.454796915873885, -12964.454936337171603 ], [ 11251502.616819780319929, -12865.068691213888087 ], [ 11251426.229385197162628, -12826.073394502753217 ], [ 11251357.734502512961626, -12808.46261550012423 ], [ 11251333.4779854696244, -12790.21731422175435 ], [ 11251317.114020323380828, -12715.989329378449838 ], [ 11251280.122553531080484, -12631.074654167647168 ], [ 11251262.545205935835838, -12610.31352849045652 ], [ 11251221.323598494753242, -12586.413187192651094 ], [ 11251174.046210754662752, -12576.349885646463008 ], [ 11251160.097878558561206, -12566.286584131588825 ], [ 11251148.576311262324452, -12552.449544599703586 ], [ 11251136.4536187145859, -12490.80069179498787 ], [ 11251124.932051416486502, -12476.96365258460537 ], [ 11251076.441281225532293, -12447.4082713623975 ], [ 11250988.543411297723651, -12420.357583698385497 ], [ 11250864.867457024753094, -12349.914477116821217 ], [ 11250809.096392137929797, -12305.253013990402906 ], [ 11250756.364349348470569, -12280.094762345517665 ], [ 11250707.26132196187973, -12234.186519570615928 ], [ 11250703.008917411789298, -12215.941221514927747 ], [ 11250719.985139757394791, -12178.827235418333657 ], [ 11250713.317102260887623, -12151.776549950945991 ], [ 11250702.396660212427378, -12142.971162259564153 ], [ 11250657.546037372201681, -12134.800296837189308 ], [ 11250611.470900133252144, -12110.899958992555185 ], [ 11250495.086372507736087, -12097.062921370779804 ], [ 11250458.707162916660309, -12056.175199108862216 ], [ 11250458.707162916660309, -12017.803302299331335 ], [ 11250392.627913182601333, -11992.02166256378041 ], [ 11250262.907310562208295, -11992.032794532533444 ], [ 11250158.03321828506887, -12011.536003848159453 ], [ 11250056.431919038295746, -11996.207282818393651 ], [ 11250053.125730162486434, -11932.977700798119258 ], [ 11250037.229306874796748, -11881.325367060599092 ], [ 11249993.52527479082346, -11833.647146761361 ], [ 11249945.84713688492775, -11809.813602843958506 ], [ 11249878.309601819142699, -11805.839490212409146 ], [ 11249810.760934805497527, -11785.968927123378307 ], [ 11249743.212267791852355, -11797.891264963056528 ], [ 11249683.622944371774793, -11797.891264963056528 ], [ 11249643.881886156275868, -11742.264820697844698 ], [ 11249580.318456914275885, -11613.534745772241877 ], [ 11249544.551504522562027, -11569.830641510032365 ], [ 11249437.28404319472611, -11549.960079767217394 ], [ 11249401.517090803012252, -11526.126537791054943 ], [ 11249274.379100369289517, -11506.255976294547509 ], [ 11249230.675068281590939, -11490.359527177759446 ], [ 11249063.796019634231925, -11478.448322354119227 ], [ 11249020.091987548395991, -11450.629536664857369 ], [ 11248956.517426356673241, -11450.629536664857369 ], [ 11248877.057573828846216, -11422.821883160355355 ], [ 11248777.72719219326973, -11359.247220578748966 ], [ 11248674.422704735770822, -11255.942570775274362 ], [ 11248618.796355187892914, -11180.456707308012483 ], [ 11248579.066428923979402, -11160.586147726755371 ], [ 11248447.954332668334246, -11152.637923924592542 ], [ 11248400.276194760575891, -11136.75260833826178 ], [ 11248332.727527748793364, -11132.778496460965471 ], [ 11248265.178860735148191, -11077.152062597837357 ], [ 11248202.316744282841682, -11074.903405493241735 ], [ 11248282.533569348976016, -11014.579282987280749 ], [ 11248314.326415918767452, -10964.251666496635153 ], [ 11248362.004553824663162, -10924.521681742260625 ], [ 11248404.383883971720934, -10868.895251011823348 ], [ 11248414.981499494984746, -10776.188245617828215 ], [ 11248396.435672329738736, -10442.440818517003208 ], [ 11248362.004553824663162, -10108.693420008519752 ], [ 11248294.923428675159812, -9953.36914240745682 ], [ 11248257.330836633220315, -9887.957730491476468 ], [ 11248237.92784938775003, -9828.82474634625396 ], [ 11248210.042316945269704, -9686.658458280406194 ], [ 11248217.31147969327867, -9637.588770434464095 ], [ 11248214.884714793413877, -9578.455789831483344 ], [ 11248201.537507846951485, -9462.705654350391342 ], [ 11248176.078740302473307, -9418.67874751261661 ], [ 11248168.798445604741573, -9325.582156855292851 ], [ 11248182.134520601481199, -9284.059942603958916 ], [ 11248211.233435496687889, -9250.085198152739395 ], [ 11248217.289215793833137, -9211.089939690926258 ], [ 11248178.483241304755211, -9033.691017709859807 ], [ 11248129.981339165940881, -8948.1419040372366 ], [ 11248087.54634927585721, -8892.782667122010025 ], [ 11248057.234051931649446, -8832.402917025405259 ], [ 11248058.44743438065052, -8761.948744286486544 ], [ 11248072.985759878531098, -8727.974003762297798 ], [ 11248173.618579557165504, -8633.60838401538058 ], [ 11248194.223817301914096, -8598.375733032455173 ], [ 11248193.010434852913022, -8511.568716025038157 ], [ 11248168.753917807713151, -8398.345562456726839 ], [ 11248200.268465653061867, -8228.494139117838131 ], [ 11248186.932390654459596, -8193.26149108685604 ], [ 11248081.446041179820895, -8097.649102473728817 ], [ 11248057.200656086206436, -8046.074741087802977 ], [ 11248010.535525543615222, -7988.956665234709362 ], [ 11246005.738288052380085, -6943.409894340408755 ], [ 11245686.217953627929091, -6921.045795430748512 ], [ 11245536.125884192064404, -6810.171518364360963 ], [ 11245488.636989418417215, -6699.86497307215086 ], [ 11245383.195167738944292, -6657.830710302900115 ], [ 11245326.822977600619197, -6654.691498953053269 ], [ 11245218.30873797647655, -6708.792801165947822 ], [ 11245186.181932933628559, -6716.97478827093164 ], [ 11245032.817070469260216, -6704.395678848783064 ], [ 11244994.022227926179767, -6688.666226130159885 ], [ 11244955.828510634601116, -6687.419447147834944 ], [ 11244917.033668095245957, -6698.106124147487208 ], [ 11244830.349180612713099, -6743.402050097852225 ], [ 11244800.03688327036798, -6748.444825851342102 ], [ 11244710.925630889832973, -6711.954276454183855 ], [ 11244673.945296049118042, -6681.129892464108707 ], [ 11244635.139321556314826, -6671.066604983656362 ], [ 11244579.98051386885345, -6599.989071646810771 ], [ 11244529.051846832036972, -6589.925784299546649 ], [ 11244460.55696414783597, -6610.052359010503096 ], [ 11244356.896254319697618, -6667.30400413793086 ], [ 11244269.599509639665484, -6694.989176687316103 ], [ 11244168.977821912616491, -6711.353150871082107 ], [ 11244110.18999882414937, -6742.133007193664525 ], [ 11244064.61579929292202, -6778.82393197001511 ], [ 11244008.57756762765348, -6759.075843182127755 ], [ 11243888.9425108730793, -6744.203550879580689 ], [ 11243837.802336800843477, -6719.245707142847095 ], [ 11243772.769490281119943, -6709.449586524987353 ], [ 11243660.848874237388372, -6729.119751463482316 ], [ 11243519.606704318895936, -6779.95939141751478 ], [ 11243468.199363470077515, -6790.634936625608134 ], [ 11243455.019135760143399, -6687.363787371847138 ], [ 11243430.539979735389352, -6642.41295244767025 ], [ 11243234.740127377212048, -6582.289263159806978 ], [ 11242978.627374909818172, -6525.059882731390644 ], [ 11242891.731380397453904, -6491.430247054880965 ], [ 11242791.243276057764888, -6438.208371167310361 ], [ 11242739.891594953835011, -6392.623016627482684 ], [ 11242695.80907660163939, -6407.740211088148499 ], [ 11242631.143584398552775, -6447.058275200266507 ], [ 11242469.630135208368301, -6567.528290837717577 ], [ 11242274.475935896858573, -6638.872990721771203 ], [ 11242233.543759133666754, -6638.672615529801988 ], [ 11242183.672627257183194, -6621.651856191284423 ], [ 11241863.963049698621035, -6846.216790139076693 ], [ 11241972.032011361792684, -7129.113181890178566 ], [ 11241976.807617515325546, -7429.48675954983446 ], [ 11241685.606961550191045, -7571.174305400239973 ], [ 11241516.078509019687772, -7708.910010175804018 ], [ 11241468.400371113792062, -7767.185806494020653 ], [ 11241452.64866316691041, -7828.99043397602054 ], [ 11240274.075818292796612, -8422.646628424534356 ], [ 11239571.950394012033939, -7985.227459369147255 ], [ 11238618.832913838326931, -7947.312011231024371 ], [ 11238671.275525951758027, -7826.385555929739894 ], [ 11238687.171949237585068, -7760.172673378519903 ], [ 11238673.924929833039641, -7640.97167575772346 ], [ 11238610.717722959816456, -7585.801696816051845 ], [ 11238474.78549275174737, -7384.736294073753015 ], [ 11238387.655727308243513, -7283.580205912173369 ], [ 11238341.30229134298861, -7140.000234901007389 ], [ 11238275.768507111817598, -7058.469789339546878 ], [ 11238269.456691984087229, -6879.701712354214578 ], [ 11238252.057455573230982, -6831.689588239455588 ], [ 11238194.171320360153913, -6751.517245517789888 ], [ 11238190.264006232842803, -6658.365044149844834 ], [ 11238170.604984160512686, -6585.951676358300574 ], [ 11238118.140108149498701, -6507.415734232409704 ], [ 11238077.731132991611958, -6483.426371526583353 ], [ 11237991.825881944969296, -6367.130840482770509 ], [ 11237966.634281180799007, -6322.525098451293161 ], [ 11237942.88983379304409, -6253.106230258928008 ], [ 11237920.247449364513159, -6227.747638118519717 ], [ 11237842.323805810883641, -6221.380160212876945 ], [ 11237804.597630381584167, -6251.313985596071689 ], [ 11237780.819787146523595, -6257.102601900247464 ], [ 11237745.197550095617771, -6244.401041901099234 ], [ 11237729.212071215733886, -6224.38578789483654 ], [ 11237729.991307651624084, -6192.982544663638691 ], [ 11237752.210678014904261, -6138.413704779473846 ], [ 11237744.407181708142161, -6049.102036552806567 ], [ 11237759.613424152135849, -6016.029001044950746 ], [ 11237766.537496477365494, -5971.768351961218286 ], [ 11237763.320363193750381, -5883.347242238683975 ], [ 11237733.286364579573274, -5758.613700856164542 ], [ 11237717.590316377580166, -5743.507639814652975 ], [ 11237669.14407398365438, -5737.318273619775027 ], [ 11237653.937831541523337, -5724.961805153352543 ], [ 11237632.096947448328137, -5617.104307888385847 ], [ 11237605.191026521846652, -5552.81727730903458 ], [ 11237581.702613964676857, -5553.218027627775882 ], [ 11237488.795366948470473, -5601.007503295218157 ], [ 11237458.872687824070454, -5597.968480025410827 ], [ 11237421.825561288744211, -5571.374243480401674 ], [ 11237388.585561336949468, -5524.074573949771548 ], [ 11237346.762828646227717, -5439.571917277345165 ], [ 11237280.271696796640754, -5351.74080761258665 ], [ 11237256.88347177952528, -5259.790876401704736 ], [ 11237179.382842289283872, -5210.420665604540773 ], [ 11237109.017792159691453, -5111.01232778458234 ], [ 11237028.890022685751319, -5084.618468086978282 ], [ 11236889.195193689316511, -4991.878171372195538 ], [ 11236881.358301537111402, -4982.972609386054501 ], [ 11236872.363686680793762, -4915.724484750629927 ], [ 11236834.604115404188633, -4893.048697772336709 ], [ 11236732.635461838915944, -4781.072389780792946 ], [ 11236727.370049923658371, -4739.661527671691147 ], [ 11236733.31451073102653, -4676.06468525654418 ], [ 11236752.739761874079704, -4594.233705965208173 ], [ 11236828.180980786681175, -4571.713767164128512 ], [ 11236853.762199770659208, -4523.167324890244345 ], [ 11236854.018234599381685, -4410.111222316257226 ], [ 11236866.88676773570478, -4298.891893143026209 ], [ 11236855.96632568910718, -4242.230259627966916 ], [ 11236828.804369935765862, -4188.841420182290676 ], [ 11236646.552099607884884, -3996.06941828618892 ], [ 11236479.795502400025725, -3915.730126327580365 ], [ 11236439.887464949861169, -3886.820449160517001 ], [ 11236308.129715645685792, -3730.984266207589371 ], [ 11236294.960619885474443, -3686.089107981527832 ], [ 11236256.23256903886795, -3639.245858531933209 ], [ 11236040.985201641917229, -3502.111356331351089 ], [ 11235959.165375906974077, -3489.788286849425731 ], [ 11235959.488202430307865, -3477.120126907783742 ], [ 11235885.271497920155525, -3392.984843563724553 ], [ 11235840.298423638567328, -3317.354371054083458 ], [ 11235884.347546145319939, -3284.793415635977453 ], [ 11235945.306099304929376, -3196.995721912317549 ], [ 11236008.991979986429214, -3142.560484191905744 ], [ 11236083.720754157751799, -3104.088463560925447 ], [ 11236154.709193436428905, -3109.698966562542864 ], [ 11236222.636346716433764, -3005.926925318192843 ], [ 11236357.945187777280807, -2888.228815136590583 ], [ 11236345.366085316985846, -2851.983185264524309 ], [ 11236391.474618403241038, -2777.755341574360955 ], [ 11236403.730894340202212, -2725.602155284027049 ], [ 11236403.730894340202212, -2670.521266311159252 ], [ 11236378.572689419612288, -2589.258031123535147 ], [ 11236399.856976062059402, -2438.319921830410749 ], [ 11236400.925643172115088, -2338.655574733933463 ], [ 11236389.648978754878044, -2234.126566161733535 ], [ 11236410.710626412183046, -2155.245570315304121 ], [ 11236418.336011530831456, -2045.740581282363109 ], [ 11236470.255422038957477, -1950.529016133790037 ], [ 11236467.884316883981228, -1815.810162501218883 ], [ 11236442.804035609588027, -1722.390842233116018 ], [ 11236559.734028737992048, -1691.232515644398745 ], [ 11236646.841530283913016, -1646.148120330050006 ], [ 11236539.908027427271008, -1577.230221379324348 ], [ 11236470.622776359319687, -1492.427030837028497 ], [ 11236284.207157075405121, -1158.668926294717721 ], [ 11236233.990934778004885, -1095.829072760235704 ], [ 11236114.088711244985461, -905.995942765986797 ], [ 11236107.09784722328186, -726.459866538533674 ], [ 11236121.936735345050693, -691.505546213451566 ], [ 11236133.02415662817657, -626.695338327286663 ], [ 11236137.810894733294845, -434.190542225437355 ], [ 11236144.556855875998735, -402.241848299053117 ], [ 11236273.275583079084754, -123.831801566217109 ], [ 11236340.367840180173516, -14.516061599455407 ], [ 11236377.170063836500049, 25.581218984362856 ], [ 11236311.469300370663404, 85.248466052027069 ], [ 11236150.378865242004395, 184.846014488106448 ], [ 11236084.388671102002263, 241.830461857249617 ], [ 11236012.242509117349982, 357.357829531536424 ], [ 11235929.19816898740828, 443.474587779571493 ], [ 11235889.134284248575568, 535.713918123432677 ], [ 11235841.522938037291169, 615.752632330402207 ], [ 11235811.633654760196805, 645.296825331327341 ], [ 11235782.044934106990695, 728.675124419732811 ], [ 11235747.246461283415556, 922.41556782666737 ], [ 11235711.746675672009587, 932.300738713597639 ], [ 11235633.800768217071891, 989.09594356078378 ], [ 11235458.728605046868324, 1081.580177731114645 ], [ 11235332.180607913061976, 1136.516347268268646 ], [ 11235277.400286493822932, 1117.046568024692988 ], [ 11235226.59407089650631, 1113.562267909593174 ], [ 11235130.436294747516513, 1144.887573109803498 ], [ 11235063.533280782401562, 1250.80807046877203 ], [ 11234881.013843677937984, 1443.5800369829999 ], [ 11234868.245498083531857, 1463.3169832131166 ], [ 11234848.575344059616327, 1565.085264565293301 ], [ 11234817.17211570776999, 1623.906485338741732 ], [ 11234690.935813147574663, 1721.35557093101238 ], [ 11234692.850508388131857, 1727.244372209173662 ], [ 11234386.488137777894735, 1793.690978795089677 ], [ 11234251.535519087687135, 1792.121373912891158 ], [ 11234062.136537451297045, 1842.148355105819746 ], [ 11234008.11318857036531, 1868.542207489618932 ], [ 11233956.861695010215044, 1910.465129562066295 ], [ 11233939.184159871190786, 1936.558419390618155 ], [ 11233923.989049378782511, 1984.058448355712699 ], [ 11233888.166437240317464, 2014.504330583450837 ], [ 11233684.707803918048739, 2077.811728255574963 ], [ 11233593.414689518511295, 2096.101521571995818 ], [ 11233442.921869914978743, 2173.44630810792205 ], [ 11233414.880490183830261, 2177.732108752789372 ], [ 11233352.074033478274941, 2143.801926011877185 ], [ 11233291.928112603724003, 2129.419446994395457 ], [ 11233232.505768418312073, 2125.745903593836829 ], [ 11233202.34931836090982, 2135.631074927857298 ], [ 11233198.575587624683976, 2159.831933598389242 ], [ 11233069.467242201790214, 2299.281868237864273 ], [ 11233024.416244277730584, 2364.459434453624453 ], [ 11232852.906304813921452, 2548.515094188484454 ], [ 11232717.141053842380643, 2737.112591687487566 ], [ 11232655.959861701354384, 2776.82025776304863 ], [ 11232564.065622052177787, 2867.623575293162958 ], [ 11232409.943787047639489, 2921.257311480196677 ], [ 11232317.82690841704607, 2973.766720894532227 ], [ 11232243.921898478642106, 3029.482132206530878 ], [ 11232169.705193966627121, 3116.122101946317343 ], [ 11232074.415709847584367, 3169.232637451014853 ], [ 11231951.006922354921699, 3294.144254106223343 ], [ 11231865.546949272975326, 3341.299196785902495 ], [ 11231788.524993592873216, 3476.496737666720492 ], [ 11231755.006694914773107, 3489.532251982278922 ], [ 11231668.144096247851849, 3493.996164232029514 ], [ 11231582.539407828822732, 3553.140218715948322 ], [ 11231528.905677165836096, 3553.819267715174192 ], [ 11231462.013795146718621, 3522.082076007343403 ], [ 11231384.624485146254301, 3472.845457826882466 ], [ 11231340.230272220447659, 3458.696748458245565 ], [ 11231210.298162564635277, 3456.537150019526507 ], [ 11231077.560801742598414, 3416.762690185286829 ], [ 11231056.031612224876881, 3407.311664064587603 ], [ 11230980.122851451858878, 3317.476822510519014 ], [ 11230786.716368148103356, 3394.877275175132581 ], [ 11230529.679663905873895, 3522.404902579869486 ], [ 11230492.020280171185732, 3527.169377513373092 ], [ 11230450.21981137804687, 3516.171010146479148 ], [ 11230436.238083334639668, 3632.110278012818526 ], [ 11230414.297011697664857, 3669.958911083625935 ], [ 11230375.88065542653203, 3700.582908112792211 ], [ 11230348.429268995299935, 3709.377149369183371 ], [ 11230288.895605320110917, 3711.213921278053022 ], [ 11230172.433154052123427, 3688.28210231660114 ], [ 11230050.426992142572999, 3633.49063992255833 ], [ 11229835.535847116261721, 3785.386110802344319 ], [ 11229747.515525745227933, 3810.366208964885118 ], [ 11229643.910475663840771, 3812.982217465673784 ], [ 11229559.418982151895761, 3947.478451133595172 ], [ 11229402.881514197215438, 4106.676486653368556 ], [ 11229351.908319363370538, 4190.177254359988183 ], [ 11229326.950489528477192, 4291.800839971482674 ], [ 11229314.493838507682085, 4397.064574885755064 ], [ 11229253.713396534323692, 4514.328555103008512 ], [ 11229220.651507768779993, 4552.689261320741025 ], [ 11229160.0825728289783, 4590.304126921653733 ], [ 11229104.701126160100102, 4613.781413641238032 ], [ 11229012.662171171978116, 4638.483215145791291 ], [ 11228976.572392255067825, 4725.011878650921062 ], [ 11228886.960202166810632, 4788.764568759224858 ], [ 11228879.81349085830152, 4818.108394853885329 ], [ 11228896.934428544715047, 4988.994995678117448 ], [ 11228864.763095702975988, 5095.104767458705282 ], [ 11228852.261916887015104, 5183.347756456834759 ], [ 11228822.751119878143072, 5223.411654525741142 ], [ 11228695.512941902503371, 5316.619495984721652 ], [ 11228598.431213980540633, 5369.496272665223842 ], [ 11228504.778126377612352, 5322.285660036730405 ], [ 11228442.160912806168199, 5269.609258834467255 ], [ 11228243.166191063821316, 5258.878056266866224 ], [ 11228202.812875650823116, 5261.750100106111859 ], [ 11228127.12675386108458, 5290.025260441008868 ], [ 11228030.790866527706385, 5286.284924264768961 ], [ 11227965.947263140231371, 5305.576598669481427 ], [ 11227918.269125234335661, 5310.630505301697667 ], [ 11227767.408951310440898, 5228.899707264170502 ], [ 11227853.470049642026424, 5231.67156351689664 ], [ 11228110.56241362914443, 5160.282350381661672 ], [ 11228194.909191805869341, 5037.007106886941983 ], [ 11228182.408012988045812, 4905.850442990556076 ], [ 11228001.280069518834352, 4699.742347343842994 ], [ 11227720.220619162544608, 4649.771014504492996 ], [ 11227320.483459673821926, 4549.839481630899172 ], [ 11226858.296065850183368, 4481.133074694727839 ], [ 11226638.673842461779714, 4334.035464434437927 ], [ 11226446.068859493359923, 4112.632080647093062 ], [ 11226158.76438570395112, 3931.492969206469297 ], [ 11225965.135263416916132, 3775.356222920109303 ], [ 11225902.729556880891323, 3582.328193768340043 ], [ 11225890.183850267902017, 3294.422552870327763 ], [ 11225940.155169684439898, 2907.175394424944898 ], [ 11226101.245604811236262, 2317.30449497757354 ], [ 11226158.76438570395112, 1964.054334902031542 ], [ 11226140.018183454871178, 1545.582089198428321 ], [ 11226133.773160021752119, 1158.346099766091811 ], [ 11226083.81297255307436, 977.218153752027888 ], [ 11225954.682363232597709, 682.755834186324023 ], [ 11225808.987413682043552, 271.430314483167649 ], [ 11225771.517273081466556, -147.04191540186028 ], [ 11225774.066489420831203, -509.275538971299454 ], [ 11225742.373830391094089, -624.157253924997804 ], [ 11225634.104493645951152, -729.632472046810904 ], [ 11224948.45435400493443, -1218.202591004642954 ], [ 11224670.856939813122153, -1429.175294509067498 ], [ 11224574.320677395910025, -1521.370099251088504 ], [ 11224315.547389099374413, -1698.434886953003797 ], [ 11224035.178119586780667, -1873.317813850109815 ], [ 11223854.740356959402561, -2001.012407630837288 ], [ 11223667.066827431321144, -2189.28707257424594 ], [ 11223616.004577005282044, -2314.688486771468888 ], [ 11223663.192909153178334, -2514.562646822118495 ], [ 11223838.086961137130857, -2742.188760935944174 ], [ 11224037.949974907562137, -2875.427072388627039 ], [ 11224161.703852823004127, -2946.571366364777987 ], [ 11224213.678923074156046, -3027.9347911100499 ], [ 11224219.946210404857993, -3072.418064717748166 ], [ 11224216.228139411658049, -3155.952220566771757 ], [ 11224161.937623754143715, -3243.549538895828846 ], [ 11223969.789050694555044, -3618.150811612590587 ], [ 11223903.164335455745459, -3798.588604743738415 ], [ 11223836.539620215073228, -3887.410442571289877 ], [ 11223709.735588250681758, -3907.937760506460563 ], [ 11223398.642139283940196, -3874.575302906701836 ], [ 11223111.326533544808626, -3724.672450001536163 ], [ 11222948.933660374954343, -3699.69235203658809 ], [ 11222842.757130056619644, -3743.407523512720218 ], [ 11222855.247176924720407, -3918.290475098651314 ], [ 11222892.728449473157525, -4143.144759463817536 ], [ 11222886.472294092178345, -4474.175604805658622 ], [ 11222841.443560065701604, -5436.098747902300602 ], [ 11222809.216567480936646, -5437.879860402122176 ], [ 11222794.989936556667089, -5348.790840068677426 ], [ 11222758.877893744036555, -5271.479426918313038 ], [ 11222708.327712973579764, -5184.5611393072586 ], [ 11222699.667056592181325, -5133.565663892437442 ], [ 11222698.843292359262705, -5096.062115385047946 ], [ 11222709.273928647860885, -4917.750500085043313 ], [ 11222698.409146346151829, -4849.222201465510807 ], [ 11222650.341390220448375, -4846.105254823020914 ], [ 11222474.256219683215022, -4880.15789695512558 ], [ 11222161.960520213469863, -4917.628048608773497 ], [ 11221880.901069857180119, -4848.921638753506159 ], [ 11221839.568142926320434, -4792.304529564950826 ], [ 11221749.733313854783773, -4617.83344416719774 ], [ 11221562.360346950590611, -4211.851163918855491 ], [ 11221506.144004102796316, -3774.643778054245558 ], [ 11221663.315993152558804, -3393.385593787292237 ], [ 11221899.63614015839994, -3075.100864757403542 ], [ 11222075.198109088465571, -2684.658842887700303 ], [ 11222068.274036761373281, -2456.765562812977805 ], [ 11221918.371210457757115, -2263.147559215136425 ], [ 11221662.291853837668896, -2194.441165302316676 ], [ 11221250.064647478982806, -2225.666284344389169 ], [ 11220548.451292857527733, -2301.664105495793592 ], [ 11220294.086256394162774, -2339.56839461982463 ], [ 11219928.034374820068479, -2489.037085619561367 ], [ 11219407.537831716239452, -2872.120883176472034 ], [ 11219157.703498529270291, -3134.445292330590291 ], [ 11218878.725722653791308, -3346.798380386922418 ], [ 11218577.907062681391835, -3339.584876392569186 ], [ 11218349.913613589480519, -3151.098690174942021 ], [ 11218091.752582490444183, -2780.50493325797197 ], [ 11217864.816668558865786, -2488.001814276385176 ], [ 11217626.125416399911046, -2339.56839461982463 ], [ 11217327.677861584350467, -2319.363905693292963 ], [ 11216977.912021512165666, -2475.500634513952718 ], [ 11216806.068123573437333, -2788.553333209325956 ], [ 11216622.079269191250205, -3208.695401869814305 ], [ 11216428.472410801798105, -3599.059515885938254 ], [ 11216397.280689481645823, -3896.182420078776886 ], [ 11216453.263261402025819, -4293.047618550709558 ], [ 11216373.469450403004885, -4858.17229111681263 ], [ 11216234.654045382514596, -4942.619281757835779 ], [ 11215959.839618461206555, -4917.628048608773497 ], [ 11215821.959297163411975, -4733.705933271937283 ], [ 11215490.338534090667963, -4501.638129982837199 ], [ 11215179.100369783118367, -4324.272742843024389 ], [ 11214396.312842473387718, -4343.319512114599092 ], [ 11214104.822755830362439, -4549.127036708579908 ], [ 11213893.516098408028483, -5171.414303112201196 ] ] ] } }
]
}
